NORAD_CAT_ID,OBJECT_NAME,OBJECT_TYPE,EPOCH,MEAN_MOTION,ECCENTRICITY,INCLINATION,RA_OF_ASC_NODE,ARG_OF_PERICENTER,MEAN_ANOMALY,BSTAR,MEAN_MOTION_DOT,MEAN_MOTION_DDOT,TLE_LINE0,TLE_LINE1,TLE_LINE2,SEMIMAJOR_AXIS,PERIOD,APOGEE,PERIGEE,DECAYED
49411.0,STARLINK-3162,PAYLOAD,2022-05-15 22:00:00,15.088181900000002,0.0002051,53.2172,356.0172,40.6871,108.5568,0.00077924,0.00012128,0.0,0 STARLINK-3162,1 49411U 21104D   22135.91667824  .00012128  00000-0  77924-3 0  9999,2 49411  53.2172 356.0172 0002051  40.6871 108.5568 15.08818190  1307,6917.946999999999,95.439,541.231,538.393,0.0
49411.0,STARLINK-3162,PAYLOAD,2022-05-16 14:00:01,15.08808608,0.0001806,53.2175,353.0226,43.8283,128.5733,0.002256,0.00035768,0.0,0 STARLINK-3162,1 49411U 21104D   22136.58334491  .00035768  00000-0  22560-2 0  9994,2 49411  53.2175 353.0226 0001806  43.8283 128.5733 15.08808608  1305,6917.976,95.44,541.091,538.592,0.0
49411.0,STARLINK-3162,PAYLOAD,2022-05-16 22:00:00,15.08832661,0.0002015,53.2173,351.5279,39.2083,144.774,0.00041369,6.301e-05,0.0,0 STARLINK-3162,1 49411U 21104D   22136.91667824  .00006301  00000-0  41369-3 0  9990,2 49411  53.2173 351.5279 0002015  39.2083 144.7740 15.08832661 29599,6917.903,95.438,541.1619999999998,538.374,0.0
49411.0,STARLINK-3162,PAYLOAD,2022-05-17 14:00:01,15.08828161,0.0001869,53.2174,348.5333,46.9505,160.268,0.0019153,0.00030316,0.0,0 STARLINK-3162,1 49411U 21104D   22137.58335648  .00030316  00000-0  19153-2 0  9998,2 49411  53.2174 348.5333 0001869  46.9505 160.2680 15.08828161  1302,6917.917,95.438,541.075,538.489,0.0
49411.0,STARLINK-3162,PAYLOAD,2022-05-17 22:00:01,15.08843668,0.0002024,53.2172,347.0386,40.4864,178.3332,-0.0011492,-0.00018533,0.0,0 STARLINK-3162,1 49411U 21104D   22137.91668981 -.00018533  00000-0 -11492-2 0  9991,2 49411  53.2172 347.0386 0002024  40.4864 178.3332 15.08843668  1306,6917.869000000002,95.437,541.134,538.3340000000002,0.0
49411.0,STARLINK-3162,PAYLOAD,2022-05-18 06:00:00,15.08854155,0.0001883,53.2169,345.541,40.0613,190.293,-0.00085166,-0.00013822,0.0,0 STARLINK-3162,1 49411U 21104D   22138.25001157 -.00013822  00000-0 -85166-3 0  9991,2 49411  53.2169 345.5410 0001883  40.0613 190.2930 15.08854155 29796,6917.837,95.437,541.005,538.399,0.0
49411.0,STARLINK-3162,PAYLOAD,2022-05-18 14:00:01,15.08864116,0.0001817,53.2171,344.0440000000001,46.3585,195.5948,-0.0012831,-0.00020664,0.0,0 STARLINK-3162,1 49411U 21104D   22138.58334491 -.00020664  00000-0 -12831-2 0  9997,2 49411  53.2171 344.0440 0001817  46.3585 195.5948 15.08864116  1302,6917.807,95.436,540.929,538.415,0.0
49411.0,STARLINK-3162,PAYLOAD,2022-05-18 22:00:00,15.08840874,0.0002019,53.217,342.5493,41.229,212.3385,-0.0012186,-0.00019631,0.0,0 STARLINK-3162,1 49411U 21104D   22138.91667824 -.00019631  00000-0 -12186-2 0  9998,2 49411  53.2170 342.5493 0002019  41.2290 212.3385 15.08840874  1302,6917.878000000002,95.437,541.139,538.346,0.0
49411.0,STARLINK-3162,PAYLOAD,2022-05-19 14:00:01,15.08813669,0.0001708,53.2168,339.5547,43.1809,233.61,0.0014295,0.00022519,0.0,0 STARLINK-3162,1 49411U 21104D   22139.58335648  .00022519  00000-0  14295-2 0  9998,2 49411  53.2168 339.5547 0001708  43.1809 233.6100 15.08813669  1309,6917.9609999999975,95.439,541.007,538.644,0.0
49411.0,STARLINK-3162,PAYLOAD,2022-05-19 22:00:00,15.08811833,0.0001943,53.2167,338.0602,37.6842,250.6215,0.0026659,0.00042363,0.0,0 STARLINK-3162,1 49411U 21104D   22139.91667824  .00042363  00000-0  26659-2 0  9995,2 49411  53.2167 338.0602 0001943  37.6842 250.6215 15.08811833 30040,6917.965999999999,95.439,541.1759999999998,538.487,0.0
49411.0,STARLINK-3162,PAYLOAD,2022-05-20 14:00:01,15.08845398,0.0001719,53.2166,335.0657,41.2251,270.2649,0.00050555,7.768e-05,0.0,0 STARLINK-3162,1 49411U 21104D   22140.58334491  .00007768  00000-0  50555-3 0  9994,2 49411  53.2166 335.0657 0001719  41.2251 270.2649 15.08845398 30145,6917.864000000001,95.437,540.918,538.54,0.0
49411.0,STARLINK-3162,PAYLOAD,2022-05-20 22:00:00,15.08824923,0.0001996,53.2167,333.5711,37.0049,286.0884,0.00060745,9.389e-05,0.0,0 STARLINK-3162,1 49411U 21104D   22140.91667824  .00009389  00000-0  60745-3 0  9993,2 49411  53.2167 333.5711 0001996  37.0049 286.0884 15.08824923  1308,6917.926,95.439,541.172,538.411,0.0
49411.0,STARLINK-3162,PAYLOAD,2022-05-21 06:00:00,15.08850176,0.0001928,53.2165,332.0733,39.5603,295.113,-0.0028314,-0.00045082,0.0,0 STARLINK-3162,1 49411U 21104D   22141.25001157 -.00045082  00000-0 -28314-2 0  9999,2 49411  53.2165 332.0733 0001928  39.5603 295.1130 15.08850176 30241,6917.849,95.437,541.048,538.381,0.0
49411.0,STARLINK-3162,PAYLOAD,2022-05-21 14:00:01,15.08829993,0.0001949,53.2167,330.5766,44.551,301.772,0.00094964,0.00014854,0.0,0 STARLINK-3162,1 49411U 21104D   22141.58335648  .00014854  00000-0  94964-3 0  9996,2 49411  53.2167 330.5766 0001949  44.5510 301.7720 15.08829993  1305,6917.911,95.438,541.124,538.428,0.0
49411.0,STARLINK-3162,PAYLOAD,2022-05-21 22:00:00,15.08837279,0.000214,53.2168,329.0821,38.8439,319.0132,0.00088142,0.00013767,0.0,0 STARLINK-3162,1 49411U 21104D   22141.91667824  .00013767  00000-0  88142-3 0  9990,2 49411  53.2168 329.0821 0002140  38.8439 319.0132 15.08837279 30342,6917.889,95.438,541.234,538.273,0.0
49411.0,STARLINK-3162,PAYLOAD,2022-05-22 14:00:01,15.08856122,0.0002012,53.217,326.0878,42.6126,338.422,-0.0022905,-0.00036574,0.0,0 STARLINK-3162,1 49411U 21104D   22142.58334491 -.00036574  00000-0 -22905-2 0  9992,2 49411  53.2170 326.0878 0002012  42.6126 338.4220 15.08856122 30451,6917.831,95.437,541.0880000000002,538.304,0.0
49411.0,STARLINK-3162,PAYLOAD,2022-05-22 22:00:01,15.08805704,0.0002202,53.217,324.593,38.1581,354.5493,0.0023963,0.0003802,0.0,0 STARLINK-3162,1 49411U 21104D   22142.91668981  .00038020  00000-0  23963-2 0  9994,2 49411  53.2170 324.5930 0002202  38.1581 354.5493 15.08805704  1302,6917.985,95.44,541.374,538.327,0.0
49411.0,STARLINK-3162,PAYLOAD,2022-05-23 06:00:00,15.08825771,0.0002034,53.2171,323.095,39.2713,4.9445,0.0011155999999999,0.00017505,0.0,0 STARLINK-3162,1 49411U 21104D   22143.25001157  .00017505  00000-0  11156-2 0  9994,2 49411  53.2171 323.0950 0002034  39.2713   4.9445 15.08825771 30559,6917.924,95.438,541.196,538.382,0.0
49411.0,STARLINK-3162,PAYLOAD,2022-05-23 14:00:01,15.08849284,0.0002061,53.2174,321.591,40.4754,15.3208,-0.0032005,-0.00050879,0.0,0 STARLINK-3162,1 49411U 21104D   22143.58334491 -.00050879  00000-0 -32005-2 0  9999,2 49411  53.2174 321.5910 0002061  40.4754  15.3208 15.08849284  1309,6917.852,95.437,541.143,538.2909999999998,0.0
49411.0,STARLINK-3162,PAYLOAD,2022-05-23 22:00:01,15.08833982,0.0002189,53.2171,320.1040000000001,35.9241,31.5471,0.0013342,0.00021006,0.0,0 STARLINK-3162,1 49411U 21104D   22143.91668981  .00021006  00000-0  13342-2 0  9991,2 49411  53.2171 320.1040 0002189  35.9241  31.5471 15.08833982  1306,6917.899,95.438,541.278,538.249,0.0
49411.0,STARLINK-3162,PAYLOAD,2022-05-24 06:00:02,15.08839247,0.0002001,53.2171,318.6058,37.8173,41.2536,0.0011734999999999,0.00018437,0.0,0 STARLINK-3162,1 49411U 21104D   22144.25002315  .00018437  00000-0  11735-2 0  9990,2 49411  53.2171 318.6058 0002001  37.8173  41.2536 15.08839247 30701,6917.8830000000025,95.438,541.132,538.363,0.0
49411.0,STARLINK-3162,PAYLOAD,2022-05-24 12:00:39,15.0884293,0.0002219,53.2193,317.48,44.9478,315.1693,4.339100000000001e-05,4.02e-06,0.0,0 STARLINK-3162,1 49411U 21104D   22144.50045219  .00000402  00000-0  43391-4 0  9996,2 49411  53.2193 317.4800 0002219  44.9478 315.1693 15.08842930 29657,6917.871,95.437,541.2719999999998,538.201,0.0
49411.0,STARLINK-3162,PAYLOAD,2022-05-24 22:00:00,15.08800586,0.0002193,53.2169,315.6148,35.7316,66.4796,0.0025186,0.00039981,0.0,0 STARLINK-3162,1 49411U 21104D   22144.91667824  .00039981  00000-0  25186-2 0  9997,2 49411  53.2169 315.6148 0002193  35.7316  66.4796 15.08800586 30805,6918.001,95.44,541.383,538.349,0.0
49411.0,STARLINK-3162,PAYLOAD,2022-05-25 14:00:01,15.08853586,0.0002011,53.217,312.6207,39.2772,86.0744,-0.00070344,-0.0001147,0.0,0 STARLINK-3162,1 49411U 21104D   22145.58334491 -.00011470  00000-0 -70344-3 0  9994,2 49411  53.2170 312.6207 0002011  39.2772  86.0744 15.08853586 30904,6917.839,95.437,541.095,538.313,0.0
49411.0,STARLINK-3162,PAYLOAD,2022-05-25 22:00:00,15.0883408,0.0002144,53.2165,311.1256,33.9086,103.053,0.00095529,0.00014946,0.0,0 STARLINK-3162,1 49411U 21104D   22145.91667824  .00014946  00000-0  95529-3 0  9991,2 49411  53.2165 311.1256 0002144  33.9086 103.0530 15.08834080  1305,6917.898,95.438,541.247,538.28,0.0
49411.0,STARLINK-3162,PAYLOAD,2022-05-26 11:42:16,15.08813576,0.0001998,53.2182,308.56,36.6825,323.4304,-0.00024477,-4.179e-05,0.0,0 STARLINK-3162,1 49411U 21104D   22146.48768663 -.00004179  00000-0 -24477-3 0  9990,2 49411  53.2182 308.5600 0001998  36.6825 323.4304 15.08813576 31031,6917.9609999999975,95.439,541.2080000000002,538.444,0.0
49411.0,STARLINK-3162,PAYLOAD,2022-05-26 22:00:00,15.08818673,0.0002036,53.2159,306.6364,33.5558,138.1106,0.0034455,0.00054943,0.0,0 STARLINK-3162,1 49411U 21104D   22146.91667824  .00054943  00000-0  34455-2 0  9993,2 49411  53.2159 306.6364 0002036  33.5558 138.1106 15.08818673 31106,6917.946,95.439,541.219,538.4019999999998,0.0
49411.0,STARLINK-3162,PAYLOAD,2022-05-27 06:00:00,15.08828849,0.000185,53.2158,305.1382,38.2659,144.9867,0.0014106,0.00022226,0.0,0 STARLINK-3162,1 49411U 21104D   22147.25001157  .00022226  00000-0  14106-2 0  9992,2 49411  53.2158 305.1382 0001850  38.2659 144.9867 15.08828849 31156,6917.9140000000025,95.438,541.059,538.5,0.0
49411.0,STARLINK-3162,PAYLOAD,2022-05-27 13:08:24,15.08835941,0.0001965,53.218,303.8022,37.4763,322.6365,0.00011149,1.486e-05,0.0,0 STARLINK-3162,1 49411U 21104D   22147.54750883  .00001486  00000-0  11149-3 0  9991,2 49411  53.2180 303.8022 0001965  37.4763 322.6365 15.08835941 30115,6917.893,95.438,541.117,538.398,0.0
